[{"OBJECT_NAME":"STARLINK-6096","OBJECT_ID":"2023-046L","EPOCH":"2026-03-09T22:00:01.999584","MEAN_MOTION":15.05512565,"ECCENTRICITY":0.00020255,"INCLINATION":43.0001,"RA_OF_ASC_NODE":157.7071,"ARG_OF_PERICENTER":261.3426,"MEAN_ANOMALY":192.0101,"EPHEMERIS_TYPE":0,"CLASSIFICATION_TYPE":"U","NORAD_CAT_ID":56103,"ELEMENT_SET_NO":999,"REV_AT_EPOCH":578,"BSTAR":0.00036896386,"MEAN_MOTION_DOT":5.191e-5,"MEAN_MOTION_DDOT":0},{"OBJECT_NAME":"TITAN 4B R\/B","OBJECT_ID":"2000-047B","EPOCH":"2026-03-09T21:29:16.286496","MEAN_MOTION":15.09565128,"ECCENTRICITY":0.00386241,"INCLINATION":67.9901,"RA_OF_ASC_NODE":39.932,"ARG_OF_PERICENTER":35.1583,"MEAN_ANOMALY":325.2103,"EPHEMERIS_TYPE":0,"CLASSIFICATION_TYPE":"U","NORAD_CAT_ID":26474,"ELEMENT_SET_NO":999,"REV_AT_EPOCH":39294,"BSTAR":0.00034805691,"MEAN_MOTION_DOT":5.567e-5,"MEAN_MOTION_DDOT":0}]
